SL-16 R/B               
1 24298U 96051B   25321.48837691 -.00000005  00000+0  24154-4 0  9990
2 24298  70.7608  52.7309 0018403 292.9815  66.9362 14.12393719505803
ORBVIEW 2 (SEASTAR)     
1 24883U 97037A   25321.40272098  .00000642  00000+0  24001-3 0  9997
2 24883  98.8449 117.8416 0002847  49.2979 310.8453 14.35390746492368
SL-16 R/B               
1 25400U 98043G   25321.46889236  .00000167  00000+0  89023-4 0  9993
2 25400  98.8082 269.1509 0009590 346.3525  13.7394 14.26016882422992
SL-16 R/B               
1 25407U 98045B   25321.47773388 -.00000129  00000+0 -41188-4 0  9993
2 25407  71.0122  57.5501 0008453 212.3465 147.7141 14.16168716411214
ISS (ZARYA)             
1 25544U 98067A   25321.32008588  .00017447  00000+0  31567-3 0  9994
2 25544  51.6331 268.2969 0004176  80.2379 279.9081 15.49753355538919
CZ-4B R/B               
1 25732U 99025C   25321.41198530  .00000157  00000+0  96872-4 0  9996
2 25732  98.6808   3.2538 0036210 308.8659  61.9484 14.18234747372254
SL-16 R/B               
1 25861U 99039B   25321.39047025  .00001124  00000+0  14993-3 0  9991
2 25861  98.0165  15.5357 0013490 261.1093  98.8592 14.81535059420231
DELTA 2 R/B             
1 25876U 99041E   25321.43262581  .00001691  00000+0  31121-3 0  9992
2 25876  51.7630  29.4605 0504887  17.1905 344.5452 14.11313384347171
HELIOS 1B               
1 25977U 99064A   25321.30391139  .00003229  00000+0  36573-3 0  9992
2 25977  98.1756 215.2177 0002554  77.3778 282.7722 14.87137409668552
TERRA                   
1 25994U 99068A   25321.46091647  .00000939  00000+0  20090-3 0  9995
2 25994  97.9787  14.0677 0002681 150.4492 270.0554 14.60912035378692
SL-16 R/B               
1 26070U 00006B   25321.46406686 -.00000156  00000+0 -55183-4 0  9993
2 26070  71.0025 333.8046 0017136 344.0035  16.0545 14.15801807332673
