CCSDS_OMM_VERS = 2.0
CREATION_DATE  = 
ORIGINATOR     = 

OBJECT_NAME    = SL-16 R/B
OBJECT_ID      = 1996-051B
CENTER_NAME    = EARTH
REF_FRAME      = TEME
TIME_SYSTEM    = UTC
MEAN_ELEMENT_THEORY = SGP/SGP4

EPOCH          = 2025-11-17T11:43:15.765024
MEAN_MOTION    = 14.12393719
ECCENTRICITY   = .0018403
INCLINATION    = 70.7608
RA_OF_ASC_NODE = 52.7309
ARG_OF_PERICENTER = 292.9815
MEAN_ANOMALY   = 66.9362

EPHEMERIS_TYPE = 0
CLASSIFICATION_TYPE = U
NORAD_CAT_ID   = 24298
ELEMENT_SET_NO = 999
REV_AT_EPOCH   = 50580
BSTAR          = .24154E-4
MEAN_MOTION_DOT = -.5E-7
MEAN_MOTION_DDOT = 0

CCSDS_OMM_VERS = 2.0
CREATION_DATE  = 
ORIGINATOR     = 

OBJECT_NAME    = ORBVIEW 2 (SEASTAR)
OBJECT_ID      = 1997-037A
CENTER_NAME    = EARTH
REF_FRAME      = TEME
TIME_SYSTEM    = UTC
MEAN_ELEMENT_THEORY = SGP/SGP4

EPOCH          = 2025-11-17T09:39:55.092672
MEAN_MOTION    = 14.35390746
ECCENTRICITY   = .0002847
INCLINATION    = 98.8449
RA_OF_ASC_NODE = 117.8416
ARG_OF_PERICENTER = 49.2979
MEAN_ANOMALY   = 310.8453

EPHEMERIS_TYPE = 0
CLASSIFICATION_TYPE = U
NORAD_CAT_ID   = 24883
ELEMENT_SET_NO = 999
REV_AT_EPOCH   = 49236
BSTAR          = .24001E-3
MEAN_MOTION_DOT = .642E-5
MEAN_MOTION_DDOT = 0

CCSDS_OMM_VERS = 2.0
CREATION_DATE  = 
ORIGINATOR     = 

OBJECT_NAME    = SL-16 R/B
OBJECT_ID      = 1998-043G
CENTER_NAME    = EARTH
REF_FRAME      = TEME
TIME_SYSTEM    = UTC
MEAN_ELEMENT_THEORY = SGP/SGP4

EPOCH          = 2025-11-17T11:15:12.299904
MEAN_MOTION    = 14.26016882
ECCENTRICITY   = .000959
INCLINATION    = 98.8082
RA_OF_ASC_NODE = 269.1509
ARG_OF_PERICENTER = 346.3525
MEAN_ANOMALY   = 13.7394

EPHEMERIS_TYPE = 0
CLASSIFICATION_TYPE = U
NORAD_CAT_ID   = 25400
ELEMENT_SET_NO = 999
REV_AT_EPOCH   = 42299
BSTAR          = .89023E-4
MEAN_MOTION_DOT = .167E-5
MEAN_MOTION_DDOT = 0

CCSDS_OMM_VERS = 2.0
CREATION_DATE  = 
ORIGINATOR     = 

OBJECT_NAME    = SL-16 R/B
OBJECT_ID      = 1998-045B
CENTER_NAME    = EARTH
REF_FRAME      = TEME
TIME_SYSTEM    = UTC
MEAN_ELEMENT_THEORY = SGP/SGP4

EPOCH          = 2025-11-17T11:27:56.207232
MEAN_MOTION    = 14.16168716
ECCENTRICITY   = .0008453
INCLINATION    = 71.0122
RA_OF_ASC_NODE = 57.5501
ARG_OF_PERICENTER = 212.3465
MEAN_ANOMALY   = 147.7141

EPHEMERIS_TYPE = 0
CLASSIFICATION_TYPE = U
NORAD_CAT_ID   = 25407
ELEMENT_SET_NO = 999
REV_AT_EPOCH   = 41121
BSTAR          = -.41188E-4
MEAN_MOTION_DOT = -.129E-5
MEAN_MOTION_DDOT = 0

CCSDS_OMM_VERS = 2.0
CREATION_DATE  = 
ORIGINATOR     = 

OBJECT_NAME    = ISS (ZARYA)
OBJECT_ID      = 1998-067A
CENTER_NAME    = EARTH
REF_FRAME      = TEME
TIME_SYSTEM    = UTC
MEAN_ELEMENT_THEORY = SGP/SGP4

EPOCH          = 2025-11-17T07:40:55.420032
MEAN_MOTION    = 15.49753355
ECCENTRICITY   = .0004176
INCLINATION    = 51.6331
RA_OF_ASC_NODE = 268.2969
ARG_OF_PERICENTER = 80.2379
MEAN_ANOMALY   = 279.9081

EPHEMERIS_TYPE = 0
CLASSIFICATION_TYPE = U
NORAD_CAT_ID   = 25544
ELEMENT_SET_NO = 999
REV_AT_EPOCH   = 53891
BSTAR          = .31567E-3
MEAN_MOTION_DOT = .17447E-3
MEAN_MOTION_DDOT = 0

CCSDS_OMM_VERS = 2.0
CREATION_DATE  = 
ORIGINATOR     = 

OBJECT_NAME    = CZ-4B R/B
OBJECT_ID      = 1999-025C
CENTER_NAME    = EARTH
REF_FRAME      = TEME
TIME_SYSTEM    = UTC
MEAN_ELEMENT_THEORY = SGP/SGP4

EPOCH          = 2025-11-17T09:53:15.529920
MEAN_MOTION    = 14.18234747
ECCENTRICITY   = .003621
INCLINATION    = 98.6808
RA_OF_ASC_NODE = 3.2538
ARG_OF_PERICENTER = 308.8659
MEAN_ANOMALY   = 61.9484

EPHEMERIS_TYPE = 0
CLASSIFICATION_TYPE = U
NORAD_CAT_ID   = 25732
ELEMENT_SET_NO = 999
REV_AT_EPOCH   = 37225
BSTAR          = .96872E-4
MEAN_MOTION_DOT = .157E-5
MEAN_MOTION_DDOT = 0

CCSDS_OMM_VERS = 2.0
CREATION_DATE  = 
ORIGINATOR     = 

OBJECT_NAME    = SL-16 R/B
OBJECT_ID      = 1999-039B
CENTER_NAME    = EARTH
REF_FRAME      = TEME
TIME_SYSTEM    = UTC
MEAN_ELEMENT_THEORY = SGP/SGP4

EPOCH          = 2025-11-17T09:22:16.629600
MEAN_MOTION    = 14.81535059
ECCENTRICITY   = .001349
INCLINATION    = 98.0165
RA_OF_ASC_NODE = 15.5357
ARG_OF_PERICENTER = 261.1093
MEAN_ANOMALY   = 98.8592

EPHEMERIS_TYPE = 0
CLASSIFICATION_TYPE = U
NORAD_CAT_ID   = 25861
ELEMENT_SET_NO = 999
REV_AT_EPOCH   = 42023
BSTAR          = .14993E-3
MEAN_MOTION_DOT = .1124E-4
MEAN_MOTION_DDOT = 0

CCSDS_OMM_VERS = 2.0
CREATION_DATE  = 
ORIGINATOR     = 

OBJECT_NAME    = DELTA 2 R/B
OBJECT_ID      = 1999-041E
CENTER_NAME    = EARTH
REF_FRAME      = TEME
TIME_SYSTEM    = UTC
MEAN_ELEMENT_THEORY = SGP/SGP4

EPOCH          = 2025-11-17T10:22:58.869984
MEAN_MOTION    = 14.11313384
ECCENTRICITY   = .0504887
INCLINATION    = 51.7630
RA_OF_ASC_NODE = 29.4605
ARG_OF_PERICENTER = 17.1905
MEAN_ANOMALY   = 344.5452

EPHEMERIS_TYPE = 0
CLASSIFICATION_TYPE = U
NORAD_CAT_ID   = 25876
ELEMENT_SET_NO = 999
REV_AT_EPOCH   = 34717
BSTAR          = .31121E-3
MEAN_MOTION_DOT = .1691E-4
MEAN_MOTION_DDOT = 0

CCSDS_OMM_VERS = 2.0
CREATION_DATE  = 
ORIGINATOR     = 

OBJECT_NAME    = HELIOS 1B
OBJECT_ID      = 1999-064A
CENTER_NAME    = EARTH
REF_FRAME      = TEME
TIME_SYSTEM    = UTC
MEAN_ELEMENT_THEORY = SGP/SGP4

EPOCH          = 2025-11-17T07:17:37.944096
MEAN_MOTION    = 14.87137409
ECCENTRICITY   = .0002554
INCLINATION    = 98.1756
RA_OF_ASC_NODE = 215.2177
ARG_OF_PERICENTER = 77.3778
MEAN_ANOMALY   = 282.7722

EPHEMERIS_TYPE = 0
CLASSIFICATION_TYPE = U
NORAD_CAT_ID   = 25977
ELEMENT_SET_NO = 999
REV_AT_EPOCH   = 66855
BSTAR          = .36573E-3
MEAN_MOTION_DOT = .3229E-4
MEAN_MOTION_DDOT = 0

CCSDS_OMM_VERS = 2.0
CREATION_DATE  = 
ORIGINATOR     = 

OBJECT_NAME    = TERRA
OBJECT_ID      = 1999-068A
CENTER_NAME    = EARTH
REF_FRAME      = TEME
TIME_SYSTEM    = UTC
MEAN_ELEMENT_THEORY = SGP/SGP4

EPOCH          = 2025-11-17T11:03:43.183008
MEAN_MOTION    = 14.60912035
ECCENTRICITY   = .0002681
INCLINATION    = 97.9787
RA_OF_ASC_NODE = 14.0677
ARG_OF_PERICENTER = 150.4492
MEAN_ANOMALY   = 270.0554

EPHEMERIS_TYPE = 0
CLASSIFICATION_TYPE = U
NORAD_CAT_ID   = 25994
ELEMENT_SET_NO = 999
REV_AT_EPOCH   = 37869
BSTAR          = .2009E-3
MEAN_MOTION_DOT = .939E-5
MEAN_MOTION_DDOT = 0

CCSDS_OMM_VERS = 2.0
CREATION_DATE  = 
ORIGINATOR     = 

OBJECT_NAME    = SL-16 R/B
OBJECT_ID      = 2000-006B
CENTER_NAME    = EARTH
REF_FRAME      = TEME
TIME_SYSTEM    = UTC
MEAN_ELEMENT_THEORY = SGP/SGP4

EPOCH          = 2025-11-17T11:08:15.376704
MEAN_MOTION    = 14.15801807
ECCENTRICITY   = .0017136
INCLINATION    = 71.0025
RA_OF_ASC_NODE = 333.8046
ARG_OF_PERICENTER = 344.0035
MEAN_ANOMALY   = 16.0545

EPHEMERIS_TYPE = 0
CLASSIFICATION_TYPE = U
NORAD_CAT_ID   = 26070
ELEMENT_SET_NO = 999
REV_AT_EPOCH   = 33267
BSTAR          = -.55183E-4
MEAN_MOTION_DOT = -.156E-5
MEAN_MOTION_DDOT = 0

